SL-14 R/B               
1 19574U 88093B   24359.55628190  .00001179  00000+0  13492-3 0  9992
2 19574  82.5319  94.9976 0022065  56.5103 314.1705 14.84996265935704
SL-16 R/B               
1 19650U 88102B   24359.41232998  .00000193  00000+0  12204-3 0  9995
2 19650  70.9995 357.8182 0015866 314.3688  45.6134 14.16053192864569
INTERCOSMOS 24          
1 20261U 89080A   24359.51122665  .00001839  00000+0  54786-3 0  9990
2 20261  82.6082  30.5806 1191372 233.5318 115.0177 12.58612604610992
SL-14 R/B               
1 20262U 89080C   24359.52708819  .00000676  00000+0  19493-3 0  9997
2 20262  82.5935  95.8014 1232264 110.6371 263.1069 12.50106844605146
DELTA 1 R/B             
1 20323U 89089B   24359.48243768  .00001008  00000+0  26025-3 0  9995
2 20323  97.1216 264.7564 0071225  72.7278 288.1697 14.50080885831925
ARIANE 40 R/B           
1 20443U 90005H   24359.45527289  .00000828  00000+0  27970-3 0  9997
2 20443  98.3717  60.7596 0011314  89.3001 270.9483 14.39388542829463
DELTA 2 R/B(1)          
1 20453U 90008B   24359.54683142  .00042241  00000+0  12275-2 0  9998
2 20453  35.6158  99.3032 0167190 247.8406 110.4500 15.21709136858406
COSMOS 2058             
1 20465U 90010A   24359.59292172  .00007566  00000+0  50752-3 0  9992
2 20465  82.4848 119.0604 0013019  24.0596 336.1237 15.06643225875867
SL-14 R/B               
1 20466U 90010B   24359.58423481  .00001285  00000+0  15514-3 0  9990
2 20466  82.5026 320.5341 0018777 313.7554  46.2105 14.82944674863249
SL-14 R/B               
1 20511U 90018B   24359.51854168  .00001086  00000+0  13511-3 0  9996
2 20511  82.5220 274.3420 0018056  98.6527 261.6733 14.81537195857393
HST                     
1 20580U 90037B   24359.57069208  .00011070  00000+0  46326-3 0  9996
2 20580  28.4660 145.7884 0001984 339.9283  20.1232 15.21931211706020
SL-16 R/B               
1 20625U 90046B   24359.55716548 -.00000003  00000+0  22958-4 0  9991
2 20625  70.9988 142.2021 0016680 256.4845 103.4419 14.14920424786133
COSMOS 2084             
1 20663U 90055A   24359.54413189  .00005701  00000+0  41717-3 0  9999
2 20663  62.7918  32.7584 0087122 137.6791 223.1074 15.01693865870126
SL-6 R/B(2)             
1 20666U 90055D   24359.36598705  .00004914  00000+0  39108-3 0  9996
2 20666  62.7848 307.9939 0055629 163.7307 196.5594 15.00500185872046
SL-8 R/B                
1 20775U 90078B   24359.30893108  .00033978  00000+0  12240-2 0  9990
2 20775  82.9112 281.7120 0435926  36.0351 326.9418 14.69674848744166
SL-8 R/B                
1 21088U 91006B   24359.51040274  .00000225  00000+0  21047-3 0  9996
2 21088  82.9424 137.5032 0022498 185.1601 243.9499 13.77408805703472
OKEAN-3                 
1 21397U 91039A   24359.55204420  .00005820  00000+0  45386-3 0  9992
2 21397  82.5188  42.0851 0015606  32.7710 327.4479 15.00915457798922
COSMOS 2151             
1 21422U 91042A   24359.51301531  .00004809  00000+0  40848-3 0  9996
2 21422  82.4971 147.4354 0013784 104.8515 255.4235 14.97617158797254
SL-14 R/B               
1 21423U 91042B   24359.48248855  .00001047  00000+0  13128-3 0  9994
2 21423  82.4936 272.8250 0015610 245.7819 114.1764 14.81255057787892
ERS-1                   
1 21574U 91050A   24359.55634347  .00000734  00000+0  25143-3 0  9995
2 21574  98.7888 355.7195 0033256  68.1519 292.3199 14.38942384752424
ARIANE 40 R/B           
1 21610U 91050F   24359.40263605  .00000949  00000+0  29989-3 0  9995
2 21610  98.2664  55.6655 0002614 349.8509  10.2628 14.42356231755513
INTERCOSMOS 25          
1 21819U 91086A   24359.59475487  .00003079  00000+0  60946-3 0  9993
2 21819  82.6027 215.7264 1495904 344.4506  11.4947 12.09901445443410
SL-8 R/B                
1 21876U 92008B   24359.43171395  .00000117  00000+0  10470-3 0  9992
2 21876  82.9264 235.1526 0033558 285.2316 247.9177 13.75894138648871
SL-8 R/B                
1 21938U 92020B   24359.46414375  .00000198  00000+0  18963-3 0  9990
2 21938  82.9306 120.7221 0030313  87.1471 341.4263 13.75478477640619
USA 81                  
1 21949U 92023A   24359.52150752  .00000412  00000+0  14598-3 0  9997
2 21949  85.0074  25.3527 0002102  69.5229 290.6189 14.32117031 31780
COSMOS 2219             
1 22219U 92076A   24359.58396196  .00000431  00000+0  25125-3 0  9995
2 22219  71.0581 218.0129 0017608 158.6267 201.5595 14.13966378656169
SL-16 R/B               
1 22220U 92076B   24359.58309280  .00000048  00000+0  47802-4 0  9996
2 22220  71.0009  35.3838 0011250  36.8035 125.7950 14.16753076659493
COSMOS 2221             
1 22236U 92080A   24359.44248039  .00005010  00000+0  47136-3 0  9990
2 22236  82.5052 339.9066 0013416 224.3961 135.6185 14.93635029715012
SL-16 R/B               
1 22285U 92093B   24359.30904654 -.00000132  00000+0 -43479-4 0  9994
2 22285  71.0201 208.6748 0006698 263.2232  96.8128 14.15346424650847
COSMOS 2228             
1 22286U 92094A   24359.57799173  .00006075  00000+0  56135-3 0  9995
2 22286  82.5189 297.8082 0018805 349.3668  10.7152 14.94305755710267
SL-16 R/B               
1 22566U 93016B   24359.51867773 -.00000019  00000+0  15023-4 0  9992
2 22566  71.0078  59.6121 0012709 272.6868  87.2800 14.15209471639892
COSMOS 2242             
1 22626U 93024A   24359.46162929  .00005708  00000+0  53405-3 0  9997
2 22626  82.5199 326.9001 0016789 352.1970   7.8986 14.93839590714600
SL-16 R/B               
1 22803U 93059B   24359.31749622  .00000103  00000+0  74692-4 0  9993
2 22803  70.9884 219.7121 0016634 168.9636 191.1856 14.17118790617144
ARIANE 40 R/B           
1 22830U 93061H   24359.43376891  .00000685  00000+0  26893-3 0  9997
2 22830  98.5507  64.6448 0011476 142.4842 217.7145 14.32464471631066
COSMOS 2278             
1 23087U 94023A   24359.46276684  .00000259  00000+0  16022-3 0  9993
2 23087  71.0529  16.0392 0009760 327.7902  32.2623 14.14217742582566
SL-16 R/B               
1 23088U 94023B   24359.50469536  .00000053  00000+0  52207-4 0  9997
2 23088  71.0006 275.2554 0005689 257.2776 102.7711 14.14930225583827
SL-16 R/B               
1 23343U 94074B   24359.37765247  .00001225  00000+0  17390-3 0  9995
2 23343  97.7639  35.8924 0005968 203.1493 167.4420 14.78673853622162
SL-16 R/B               
1 23405U 94077B   24359.51640749  .00000278  00000+0  16690-3 0  9991
2 23405  70.9814 198.4679 0001059 173.2001 186.9137 14.15474949553947
ARIANE 40+ R/B          
1 23561U 95021B   24359.41786043  .00000832  00000+0  28223-3 0  9992
2 23561  98.5068  64.5675 0007162  29.0754 341.7023 14.39281638555900
SL-16 R/B               
1 23705U 95058B   24359.50176227 -.00000186  00000+0 -71202-4 0  9999
2 23705  71.0217  24.3679 0010274  65.8908 294.3288 14.15408725505562
SL-16 R/B               
1 24298U 96051B   24359.51582284 -.00000188  00000+0 -75340-4 0  9995
2 24298  70.7841  26.5769 0014102  57.9555 302.2933 14.12449363459493
ORBVIEW 2 (SEASTAR)     
1 24883U 97037A   24359.46141096  .00000907  00000+0  33473-3 0  9993
2 24883  98.7994 142.6496 0001231 281.4789  78.6257 14.34984384445322
SL-16 R/B               
1 25400U 98043G   24359.57511508  .00000249  00000+0  12340-3 0  9997
2 25400  98.7680 300.3866 0009295 206.2045 153.8665 14.25890585376266
SL-16 R/B               
1 25407U 98045B   24359.51561766 -.00000142  00000+0 -47509-4 0  9991
2 25407  71.0117  27.1877 0008890 321.4964  38.5524 14.16090846364787
ISS (ZARYA)             
1 25544U 98067A   24359.68458358  .00023188  00000+0  41052-3 0  9996
2 25544  51.6394  91.5363 0005189   2.3927 145.3896 15.50168044488092
CZ-4B R/B               
1 25732U 99025C   24359.57579708  .00000247  00000+0  14067-3 0  9998
2 25732  98.7270  41.7719 0037427 168.1096 311.9839 14.18110172325782
OKEAN-O                 
1 25860U 99039A   24359.14111890  .00001582  00000+0  21977-3 0  9993
2 25860  98.0111  51.0213 0001099  65.0504 295.0821 14.79273669369238
SL-16 R/B               
1 25861U 99039B   24359.42271377  .00001524  00000+0  20435-3 0  9996
2 25861  98.0637  46.6208 0013838 241.9709 118.0104 14.80823547371680
DELTA 2 R/B             
1 25876U 99041E   24359.12643676  .00002380  00000+0  42668-3 0  9990
2 25876  51.7616 258.3622 0511805 129.9580 234.7480 14.09657302300837
HELIOS 1B               
1 25977U 99064A   24359.53290143  .00003230  00000+0  38013-3 0  9993
2 25977  98.2171 237.3813 0002482  70.0847 290.0634 14.85565189619865
TERRA                   
1 25994U 99068A   24359.62406488  .00001249  00000+0  26769-3 0  9990
2 25994  98.0251  57.3313 0003433 115.6141  39.8099 14.60333694330834
SL-16 R/B               
1 26070U 00006B   24359.55868677 -.00000076  00000+0 -14519-4 0  9994
2 26070  71.0025 303.2139 0014858 138.2055 222.0205 14.15724970286260
TITAN 4B R/B            
1 26474U 00047B   24359.53442360  .00006987  00000+0  48847-3 0  9997
2 26474  67.9905 194.1931 0045517 181.2944 178.8093 15.05009041326574
ENVISAT                 
1 27386U 02009A   24359.52741753  .00000400  00000+0  14402-3 0  9991
2 27386  98.3107 314.2840 0001130  83.7817  31.4283 14.38794429195879
IDEFIX & ARIANE 42P R/B 
1 27422U 02021B   24359.56600148  .00000830  00000+0  33474-3 0  9999
2 27422  98.5467 293.6386 0012832  46.8204 313.4049 14.30543991181086
AQUA                    
1 27424U 02022A   24359.56396024  .00002902  00000+0  60734-3 0  9998
2 27424  98.3556 310.0401 0000723 117.9480 302.0165 14.60555367204452
CZ-4B R/B               
1 27432U 02024C   24359.37755943  .00000172  00000+0  11211-3 0  9990
2 27432  98.9511  42.3872 0050091 191.2143 182.8010 14.14425712166997
MIDORI II (ADEOS-II)    
1 27597U 02056A   24359.47746831  .00000924  00000+0  38453-3 0  9996
2 27597  98.7169 305.6474 0000984 137.2656 222.8602 14.28772724147426
H-2A R/B                
1 27601U 02056E   24359.57308010  .00000990  00000+0  36421-3 0  9992
2 27601  98.2562 327.4972 0071548  34.4568  81.5522 14.33242567151051
